[{"OBJECT_NAME":"VIZARD-METEO (RS38S)","OBJECT_ID":"2023-091Z","EPOCH":"2024-10-27T12:34:32.104416","MEAN_MOTION":15.15032917,"ECCENTRICITY":0.0011681,"INCLINATION":97.5976,"RA_OF_ASC_NODE":354.2986,"ARG_OF_PERICENTER":18.2641,"MEAN_ANOMALY":341.9008,"EPHEMERIS_TYPE":0,"CLASSIFICATION_TYPE":"U","NORAD_CAT_ID":57189,"ELEMENT_SET_NO":999,"REV_AT_EPOCH":7356,"BSTAR":0.001486,"MEAN_MOTION_DOT":0.00027833,"MEAN_MOTION_DDOT":0},{"OBJECT_NAME":"NANOZOND 1 (RS49S)","OBJECT_ID":"2023-091AA","EPOCH":"2024-10-27T11:45:27.476640","MEAN_MOTION":15.19866631,"ECCENTRICITY":0.0009723,"INCLINATION":97.5949,"RA_OF_ASC_NODE":355.4068,"ARG_OF_PERICENTER":21.4463,"MEAN_ANOMALY":338.7177,"EPHEMERIS_TYPE":0,"CLASSIFICATION_TYPE":"U","NORAD_CAT_ID":57190,"ELEMENT_SET_NO":999,"REV_AT_EPOCH":7364,"BSTAR":0.0020859,"MEAN_MOTION_DOT":0.00044975,"MEAN_MOTION_DDOT":0},{"OBJECT_NAME":"POLYTECH-UNIVERSE 3 (RS46S)","OBJECT_ID":"2023-091AB","EPOCH":"2024-10-27T11:34:15.719232","MEAN_MOTION":15.10190301,"ECCENTRICITY":0.0019629,"INCLINATION":97.5956,"RA_OF_ASC_NODE":352.345,"ARG_OF_PERICENTER":39.7309,"MEAN_ANOMALY":320.5354,"EPHEMERIS_TYPE":0,"CLASSIFICATION_TYPE":"U","NORAD_CAT_ID":57191,"ELEMENT_SET_NO":999,"REV_AT_EPOCH":7344,"BSTAR":0.00093254,"MEAN_MOTION_DOT":0.00015256,"MEAN_MOTION_DDOT":0},{"OBJECT_NAME":"UTMN 2 (RS27S)","OBJECT_ID":"2023-091AP","EPOCH":"2024-10-27T07:20:28.985856","MEAN_MOTION":15.14190669,"ECCENTRICITY":0.0012194,"INCLINATION":97.5975,"RA_OF_ASC_NODE":353.8166,"ARG_OF_PERICENTER":19.2364,"MEAN_ANOMALY":340.9325,"EPHEMERIS_TYPE":0,"CLASSIFICATION_TYPE":"U","NORAD_CAT_ID":57203,"ELEMENT_SET_NO":999,"REV_AT_EPOCH":7351,"BSTAR":0.0014014,"MEAN_MOTION_DOT":0.00025626,"MEAN_MOTION_DDOT":0},{"OBJECT_NAME":"ARCCUBE 1 (RS25S)","OBJECT_ID":"2023-091AR","EPOCH":"2024-10-27T12:29:24.940320","MEAN_MOTION":15.22414526,"ECCENTRICITY":0.0009491,"INCLINATION":97.5904,"RA_OF_ASC_NODE":355.824,"ARG_OF_PERICENTER":20.2617,"MEAN_ANOMALY":339.8994,"EPHEMERIS_TYPE":0,"CLASSIFICATION_TYPE":"U","NORAD_CAT_ID":57205,"ELEMENT_SET_NO":999,"REV_AT_EPOCH":7368,"BSTAR":0.0022976,"MEAN_MOTION_DOT":0.00053432,"MEAN_MOTION_DDOT":0},{"OBJECT_NAME":"KUZGTU 1 (RS47S)","OBJECT_ID":"2023-091AV","EPOCH":"2024-10-27T12:30:23.540256","MEAN_MOTION":15.12810725,"ECCENTRICITY":0.0016377,"INCLINATION":97.5964,"RA_OF_ASC_NODE":352.9968,"ARG_OF_PERICENTER":28.9436,"MEAN_ANOMALY":331.27,"EPHEMERIS_TYPE":0,"CLASSIFICATION_TYPE":"U","NORAD_CAT_ID":57217,"ELEMENT_SET_NO":999,"REV_AT_EPOCH":7348,"BSTAR":0.0013948,"MEAN_MOTION_DOT":0.00024569,"MEAN_MOTION_DDOT":0},{"OBJECT_NAME":"HADES-D (SO-121)","OBJECT_ID":"2023-174CY","EPOCH":"2024-10-27T04:20:48.147648","MEAN_MOTION":15.79582242,"ECCENTRICITY":0.0002916,"INCLINATION":97.4269,"RA_OF_ASC_NODE":20.0723,"ARG_OF_PERICENTER":261.8329,"MEAN_ANOMALY":98.2607,"EPHEMERIS_TYPE":0,"CLASSIFICATION_TYPE":"U","NORAD_CAT_ID":58567,"ELEMENT_SET_NO":999,"REV_AT_EPOCH":5415,"BSTAR":0.0052751,"MEAN_MOTION_DOT":0.01061184,"MEAN_MOTION_DDOT":0},{"OBJECT_NAME":"SONATE-2","OBJECT_ID":"2024-043Q","EPOCH":"2024-10-26T21:15:41.583744","MEAN_MOTION":15.24100437,"ECCENTRICITY":0.0013394,"INCLINATION":97.4923,"RA_OF_ASC_NODE":63.8594,"ARG_OF_PERICENTER":191.2553,"MEAN_ANOMALY":168.8387,"EPHEMERIS_TYPE":0,"CLASSIFICATION_TYPE":"U","NORAD_CAT_ID":59112,"ELEMENT_SET_NO":999,"REV_AT_EPOCH":3582,"BSTAR":0.0013348,"MEAN_MOTION_DOT":0.00032546,"MEAN_MOTION_DDOT":0},{"OBJECT_NAME":"MESAT1","OBJECT_ID":"2024-125G","EPOCH":"2024-10-27T03:03:19.596096","MEAN_MOTION":15.24114014,"ECCENTRICITY":0.0022821,"INCLINATION":97.305,"RA_OF_ASC_NODE":150.7531,"ARG_OF_PERICENTER":218.0362,"MEAN_ANOMALY":141.9265,"EPHEMERIS_TYPE":0,"CLASSIFICATION_TYPE":"U","NORAD_CAT_ID":60209,"ELEMENT_SET_NO":999,"REV_AT_EPOCH":1747,"BSTAR":0.0015088,"MEAN_MOTION_DOT":0.00037012,"MEAN_MOTION_DDOT":0},{"OBJECT_NAME":"OOV-CUBE (TUBSAT-30)","OBJECT_ID":"2024-128F","EPOCH":"2024-10-26T22:42:52.807392","MEAN_MOTION":14.97697597,"ECCENTRICITY":0.0020957,"INCLINATION":61.9969,"RA_OF_ASC_NODE":144.6462,"ARG_OF_PERICENTER":350.3972,"MEAN_ANOMALY":9.6713,"EPHEMERIS_TYPE":0,"CLASSIFICATION_TYPE":"U","NORAD_CAT_ID":60240,"ELEMENT_SET_NO":999,"REV_AT_EPOCH":1633,"BSTAR":0.00059429,"MEAN_MOTION_DOT":6.837e-5,"MEAN_MOTION_DDOT":0}]
