VIZARD-METEO (RS38S)    
1 57189U 23091Z   24301.52398269  .00027833  00000+0  14860-2 0  9992
2 57189  97.5976 354.2986 0011681  18.2641 341.9008 15.15032917 73561
NANOZOND 1 (RS49S)      
1 57190U 23091AA  24301.48990135  .00044975  00000+0  20859-2 0  9990
2 57190  97.5949 355.4068 0009723  21.4463 338.7177 15.19866631 73641
POLYTECH-UNIVERSE 3 (R*)
1 57191U 23091AB  24301.48212638  .00015256  00000+0  93254-3 0  9996
2 57191  97.5956 352.3450 0019629  39.7309 320.5354 15.10190301 73447
UTMN 2 (RS27S)          
1 57203U 23091AP  24301.30589104  .00025626  00000+0  14014-2 0  9994
2 57203  97.5975 353.8166 0012194  19.2364 340.9325 15.14190669 73519
ARCCUBE 1 (RS25S)       
1 57205U 23091AR  24301.52042755  .00053432  00000+0  22976-2 0  9998
2 57205  97.5904 355.8240 0009491  20.2617 339.8994 15.22414526 73684
KUZGTU 1 (RS47S)        
1 57217U 23091AV  24301.52110579  .00024569  00000+0  13948-2 0  9999
2 57217  97.5964 352.9968 0016377  28.9436 331.2700 15.12810725 73482
HADES-D (SO-121)        
1 58567U 23174CY  24301.18111282  .01061184  00000+0  52751-2 0  9994
2 58567  97.4269  20.0723 0002916 261.8329  98.2607 15.79582242 54155
SONATE-2                
1 59112U 24043Q   24300.88589796  .00032546  00000+0  13348-2 0  9990
2 59112  97.4923  63.8594 0013394 191.2553 168.8387 15.24100437 35821
MESAT1                  
1 60209U 24125G   24301.12731014  .00037012  00000+0  15088-2 0  9996
2 60209  97.3050 150.7531 0022821 218.0362 141.9265 15.24114014 17472
OOV-CUBE (TUBSAT-30)    
1 60240U 24128F   24300.94644453  .00006837  00000+0  59429-3 0  9992
2 60240  61.9969 144.6462 0020957 350.3972   9.6713 14.97697597 16336
